{
  "links" : {
    "next" : "https://api.nasa.gov/neo/rest/v1/feed?start_date=2001-12-23&end_date=2001-12-23&detailed=true&api_key=t0TVs3DtDT2H8Oy2Zy8m2eVrNsAVKAexjcZXUckd",
    "prev" : "https://api.nasa.gov/neo/rest/v1/feed?start_date=2001-12-21&end_date=2001-12-21&detailed=true&api_key=t0TVs3DtDT2H8Oy2Zy8m2eVrNsAVKAexjcZXUckd",
    "self" : "https://api.nasa.gov/neo/rest/v1/feed?start_date=2001-12-22&end_date=2001-12-22&detailed=true&api_key=t0TVs3DtDT2H8Oy2Zy8m2eVrNsAVKAexjcZXUckd"
  },
  "element_count" : 9,
  "near_earth_objects" : {
    "2001-12-22" : [ {
      "links" : {
        "self" : "https://api.nasa.gov/neo/rest/v1/neo/3154513?api_key=t0TVs3DtDT2H8Oy2Zy8m2eVrNsAVKAexjcZXUckd"
      },
      "neo_reference_id" : "3154513",
      "name" : "(2003 KZ18)",
      "nasa_jpl_url" : "http://ssd.jpl.nasa.gov/sbdb.cgi?sstr=3154513",
      "absolute_magnitude_h" : 21.2,
      "estimated_diameter" : {
        "kilometers" : {
          "estimated_diameter_min" : 0.1529519353,
          "estimated_diameter_max" : 0.3420109247
        },
        "meters" : {
          "estimated_diameter_min" : 152.9519353442,
          "estimated_diameter_max" : 342.0109247198
        },
        "miles" : {
          "estimated_diameter_min" : 0.095039897,
          "estimated_diameter_max" : 0.2125156703
        },
        "feet" : {
          "estimated_diameter_min" : 501.8108275547,
          "estimated_diameter_max" : 1122.0831222578
        }
      },
      "is_potentially_hazardous_asteroid" : false,
      "close_approach_data" : [ {
        "close_approach_date" : "2001-12-22",
        "epoch_date_close_approach" : 1009008000000,
        "relative_velocity" : {
          "kilometers_per_second" : "18.2071157293",
          "kilometers_per_hour" : "65545.6166254066",
          "miles_per_hour" : "40727.4971748255"
        },
        "miss_distance" : {
          "astronomical" : "0.3189616834",
          "lunar" : "124.0760955811",
          "kilometers" : "47715988",
          "miles" : "29649340"
        },
        "orbiting_body" : "Earth"
      } ],
      "orbital_data" : {
        "orbit_id" : "32",
        "orbit_determination_date" : "2016-05-18 06:16:37",
        "orbit_uncertainty" : "0",
        "minimum_orbit_intersection" : ".158693",
        "jupiter_tisserand_invariant" : "6.222",
        "epoch_osculation" : "2457600.5",
        "eccentricity" : ".3304930658794457",
        "semi_major_axis" : ".9485854363354138",
        "inclination" : "23.89902642774379",
        "ascending_node_longitude" : "249.9915501477144",
        "orbital_period" : "337.4528542211346",
        "perihelion_distance" : ".6350845272323311",
        "perihelion_argument" : "154.6064272693837",
        "aphelion_distance" : "1.262086345438496",
        "perihelion_time" : "2457644.054204535895",
        "mean_anomaly" : "313.5356911734779",
        "mean_motion" : "1.066815691427194",
        "equinox" : "J2000"
      }
    }, {
      "links" : {
        "self" : "https://api.nasa.gov/neo/rest/v1/neo/3364640?api_key=t0TVs3DtDT2H8Oy2Zy8m2eVrNsAVKAexjcZXUckd"
      },
      "neo_reference_id" : "3364640",
      "name" : "(2006 YH14)",
      "nasa_jpl_url" : "http://ssd.jpl.nasa.gov/sbdb.cgi?sstr=3364640",
      "absolute_magnitude_h" : 23.2,
      "estimated_diameter" : {
        "kilometers" : {
          "estimated_diameter_min" : 0.0608912622,
          "estimated_diameter_max" : 0.1361570015
        },
        "meters" : {
          "estimated_diameter_min" : 60.8912622106,
          "estimated_diameter_max" : 136.1570015386
        },
        "miles" : {
          "estimated_diameter_min" : 0.0378360645,
          "estimated_diameter_max" : 0.0846040122
        },
        "feet" : {
          "estimated_diameter_min" : 199.7744887109,
          "estimated_diameter_max" : 446.7093369279
        }
      },
      "is_potentially_hazardous_asteroid" : false,
      "close_approach_data" : [ {
        "close_approach_date" : "2001-12-22",
        "epoch_date_close_approach" : 1009008000000,
        "relative_velocity" : {
          "kilometers_per_second" : "13.4551008547",
          "kilometers_per_hour" : "48438.3630770867",
          "miles_per_hour" : "30097.715101982"
        },
        "miss_distance" : {
          "astronomical" : "0.3616342238",
          "lunar" : "140.6757202148",
          "kilometers" : "54099712",
          "miles" : "33616000"
        },
        "orbiting_body" : "Earth"
      } ],
      "orbital_data" : {
        "orbit_id" : "11",
        "orbit_determination_date" : "2017-04-06 09:07:16",
        "orbit_uncertainty" : "6",
        "minimum_orbit_intersection" : ".0910316",
        "jupiter_tisserand_invariant" : "3.879",
        "epoch_osculation" : "2458000.5",
        "eccentricity" : ".4211284183170601",
        "semi_major_axis" : "1.853272540180447",
        "inclination" : "8.349558505329266",
        "ascending_node_longitude" : "293.2433555828434",
        "orbital_period" : "921.5255124713362",
        "perihelion_distance" : "1.072806806623815",
        "perihelion_argument" : "185.1393209021663",
        "aphelion_distance" : "2.633738273737078",
        "perihelion_time" : "2457802.448053268049",
        "mean_anomaly" : "77.37029507983377",
        "mean_motion" : ".3906565744821934",
        "equinox" : "J2000"
      }
    }, {
      "links" : {
        "self" : "https://api.nasa.gov/neo/rest/v1/neo/3398652?api_key=t0TVs3DtDT2H8Oy2Zy8m2eVrNsAVKAexjcZXUckd"
      },
      "neo_reference_id" : "3398652",
      "name" : "(2007 YQ56)",
      "nasa_jpl_url" : "http://ssd.jpl.nasa.gov/sbdb.cgi?sstr=3398652",
      "absolute_magnitude_h" : 19.9,
      "estimated_diameter" : {
        "kilometers" : {
          "estimated_diameter_min" : 0.2783267681,
          "estimated_diameter_max" : 0.6223575734
        },
        "meters" : {
          "estimated_diameter_min" : 278.3267680719,
          "estimated_diameter_max" : 622.3575733667
        },
        "miles" : {
          "estimated_diameter_min" : 0.1729441822,
          "estimated_diameter_max" : 0.3867149477
        },
        "feet" : {
          "estimated_diameter_min" : 913.1455937611,
          "estimated_diameter_max" : 2041.8556210042
        }
      },
      "is_potentially_hazardous_asteroid" : true,
      "close_approach_data" : [ {
        "close_approach_date" : "2001-12-22",
        "epoch_date_close_approach" : 1009008000000,
        "relative_velocity" : {
          "kilometers_per_second" : "22.2252969274",
          "kilometers_per_hour" : "80011.0689384935",
          "miles_per_hour" : "49715.76669681"
        },
        "miss_distance" : {
          "astronomical" : "0.3108945187",
          "lunar" : "120.9379653931",
          "kilometers" : "46509160",
          "miles" : "28899452"
        },
        "orbiting_body" : "Earth"
      } ],
      "orbital_data" : {
        "orbit_id" : "38",
        "orbit_determination_date" : "2017-04-06 09:04:50",
        "orbit_uncertainty" : "0",
        "minimum_orbit_intersection" : ".0118426",
        "jupiter_tisserand_invariant" : "5.364",
        "epoch_osculation" : "2458000.5",
        "eccentricity" : ".2879114227017446",
        "semi_major_axis" : "1.14080069834479",
        "inclination" : "26.45624870771064",
        "ascending_node_longitude" : "276.0329455216811",
        "orbital_period" : "445.0543952832541",
        "perihelion_distance" : ".8123511462651979",
        "perihelion_argument" : "273.090794382848",
        "aphelion_distance" : "1.469250250424382",
        "perihelion_time" : "2458111.312733884790",
        "mean_anomaly" : "270.3647000876495",
        "mean_motion" : ".8088898881020569",
        "equinox" : "J2000"
      }
    } ]
  }
}